ONEWEB-0235             
1 48771U 21045E   25291.95052312  .00000102  00000+0  23705-3 0  9997
2 48771  87.8968 307.3277 0001894 108.7330 251.4006 13.15548036212669
ONEWEB-0242             
1 48772U 21045F   25291.94418489 -.00000010  00000+0 -59634-4 0  9999
2 48772  87.8976 307.3179 0001716  97.3296 262.8030 13.15546513212703
ONEWEB-0241             
1 48773U 21045G   25291.93151036  .00000036  00000+0  60825-4 0  9991
2 48773  87.8963 307.3637 0002145 103.3405 256.7964 13.15547595212615
ONEWEB-0243             
1 48774U 21045H   25291.96319455  .00000346  00000+0  88581-3 0  9998
2 48774  87.8975 307.3636 0001710 106.2082 253.9237 13.15548772212641
ONEWEB-0222             
1 48775U 21045J   25291.94656128  .00000110  00000+0  25895-3 0  9996
2 48775  87.8974 307.3187 0001872  97.9905 262.1438 13.15548072212683
ONEWEB-0244             
1 48776U 21045K   25291.97269858  .00000189  00000+0  46796-3 0  9999
2 48776  87.8982 307.2981 0001804  98.0845 262.0490 13.15547971213252
ONEWEB-0247             
1 48777U 21045L   25291.96953179  .00000233  00000+0  58549-3 0  9994
2 48777  87.8969 307.3632 0001799 125.1466 234.9833 13.15548713212697
ONEWEB-0245             
1 48778U 21045M   25291.96477999  .00000159  00000+0  38946-3 0  9992
2 48778  87.8969 307.3281 0002034  96.5162 263.6200 13.15548168212663
